[{"OBJECT_NAME":"SPAWAR-CAL-O","OBJECT_ID":"2018-099J","EPOCH":"2026-03-09T17:45:15.080832","MEAN_MOTION":15.31356755,"ECCENTRICITY":0.00072392,"INCLINATION":97.4452,"RA_OF_ASC_NODE":132.0993,"ARG_OF_PERICENTER":285.067,"MEAN_ANOMALY":74.977,"EPHEMERIS_TYPE":0,"CLASSIFICATION_TYPE":"U","NORAD_CAT_ID":43766,"ELEMENT_SET_NO":999,"REV_AT_EPOCH":39828,"BSTAR":0.00069663212,"MEAN_MOTION_DOT":0.00021069,"MEAN_MOTION_DDOT":0},{"OBJECT_NAME":"STARLINK-34138","OBJECT_ID":"2025-099V","EPOCH":"2026-03-09T08:14:14.542368","MEAN_MOTION":15.27596925,"ECCENTRICITY":0.00043067,"INCLINATION":43.001,"RA_OF_ASC_NODE":174.6815,"ARG_OF_PERICENTER":288.6513,"MEAN_ANOMALY":71.3871,"EPHEMERIS_TYPE":0,"CLASSIFICATION_TYPE":"U","NORAD_CAT_ID":63971,"ELEMENT_SET_NO":999,"REV_AT_EPOCH":4732,"BSTAR":0.001031966,"MEAN_MOTION_DOT":0.00028264,"MEAN_MOTION_DDOT":0}]
